STARLINK-3589           
1 51997U 22025AT  26159.75246514 -.00000165  00000+0  77037-5 0  9990
2 51997  53.1684 330.2756 0001309  77.2653 282.8485 15.08842110234656
STARLINK-3618           
1 51998U 22025AU  26160.17565270  .00005048  00000+0  33491-3 0  9990
2 51998  53.1646 328.3750 0001085  80.3619 279.7495 15.08849351234734
STARLINK-3653           
1 52000U 22025AW  26159.76349432 -.00001430  00000+0 -71803-4 0  9991
2 52000  53.1653 330.1388 0000935  79.6622 280.4475 15.08831709234671
STARLINK-3659           
1 52001U 22025AX  26160.17294288 -.00000182  00000+0  66662-5 0  9997
2 52001  53.1664 328.3955 0000944  78.0352 282.0745 15.08835270234738
STARLINK-3668           
1 52002U 22025AY  26160.17199838  .00005579  00000+0  36866-3 0  9998
2 52002  53.1678 328.4315 0001328 101.6127 258.5013 15.08807371234732
STARLINK-3712           
1 52090U 22029C   26159.89322338  .00001204  00000+0  93751-4 0  9997
2 52090  53.1656  39.6451 0001334  91.6994 268.4150 15.08833382234423
STARLINK-3716           
1 52092U 22029E   26159.89690522  .00001044  00000+0  83701-4 0  9998
2 52092  53.1668  39.6274 0001323  87.5860 272.5283 15.08830570234424
STARLINK-3673           
1 52093U 22029F   26159.88681932  .00000413  00000+0  44052-4 0  9998
2 52093  53.1656  39.6847 0001187  88.1126 272.0001 15.08834635234427
STARLINK-3714           
1 52094U 22029G   26159.88954487  .00000160  00000+0  28191-4 0  9992
2 52094  53.1648  39.6609 0001588 111.7194 248.3967 15.08829501234421
STARLINK-3701           
1 52095U 22029H   26159.87850127  .00000143  00000+0  27062-4 0  9995
2 52095  53.1643  39.7148 0001169  72.5873 287.5246 15.08832539234429
STARLINK-3717           
1 52096U 22029J   26159.85734199  .00000485  00000+0  48590-4 0  9992
2 52096  53.1639  29.8065 0001195  80.8477 279.2650 15.08831090234545
STARLINK-3665           
1 52098U 22029L   26159.88218082  .00002173  00000+0  15457-3 0  9996
2 52098  53.1666  39.6946 0001098  85.5185 274.5932 15.08835688234429
STARLINK-3702           
1 52100U 22029N   26159.87482036  .00001212  00000+0  94211-4 0  9990
2 52100  53.1665  39.7274 0001418  90.9854 269.1300 15.08838174234428
STARLINK-3703           
1 52101U 22029P   26159.88588834 -.00000589  00000+0 -18886-4 0  9997
2 52101  53.1654  39.8711 0001530  81.2319 278.8846 15.08837074234417
STARLINK-3709           
1 52102U 22029Q   26159.87670073  .00001113  00000+0  88023-4 0  9996
2 52102  53.1654  29.7200 0001329  95.0815 265.0328 15.08834547234559
STARLINK-3705           
1 52103U 22029R   26159.84998448  .00000256  00000+0  34188-4 0  9993
2 52103  53.1653  29.8402 0001128  89.1965 270.9156 15.08830643234547
STARLINK-3706           
1 52105U 22029T   26159.90982981 -.00008143  00000+0 -49355-3 0  9993
2 52105  53.1648  29.5735 0001318  76.1272 283.9866 15.08879611234558
STARLINK-3670           
1 52106U 22029U   26159.86378507  .00000676  00000+0  60555-4 0  9999
2 52106  53.1670  39.7759 0001387  91.8601 268.2549 15.08832694234418
STARLINK-3658           
1 52107U 22029V   26159.90518378  .00000331  00000+0  38914-4 0  9999
2 52107  53.1666  29.5921 0001388  89.8647 270.2503 15.08833447234555
STARLINK-3698           
1 52108U 22029W   26159.91252440  .00002081  00000+0  14879-3 0  9993
2 52108  53.1659  29.5585 0001358  83.2742 276.8404 15.08850435234553
STARLINK-3687           
1 52110U 22029Y   26159.90886218  .00000918  00000+0  75790-4 0  9998
2 52110  53.1666  29.5743 0001303  91.4376 268.6765 15.08837472234559
STARLINK-3708           
1 52111U 22029Z   26159.89414553  .00001715  00000+0  12584-3 0  9993
2 52111  53.1668  29.6402 0001306  87.8322 272.2819 15.08838928234556
STARLINK-3734           
1 52112U 22029AA  26160.16670139  .00138300  00000+0  26104-2 0  9993
2 52112  53.2173  18.1610 0001087  75.0131 186.4116 15.47503143  5908
STARLINK-3736           
1 52113U 22029AB  26159.88678459 -.00003239  00000+0 -18544-3 0  9998
2 52113  53.1665  29.6755 0001256 106.1879 253.9251 15.08851557234551
STARLINK-3737           
1 52114U 22029AC  26159.96405369  .00002067  00000+0  14793-3 0  9994
2 52114  53.1658  29.3259 0001384  84.8388 275.2761 15.08844940234561
STARLINK-3685           
1 52115U 22029AD  26159.87942625  .00001470  00000+0  11054-3 0  9990
2 52115  53.1651  29.7067 0000857  99.6761 260.4327 15.08806646234553
STARLINK-3735           
1 52116U 22029AE  26159.89046664 -.00002856  00000+0 -16133-3 0  9995
2 52116  53.1664  29.6557 0001490  77.6362 282.4796 15.08853631234558
STARLINK-3738           
1 52117U 22029AF  26159.87206662  .00000107  00000+0  24854-4 0  9995
2 52117  53.1638  29.7411 0001281  92.0170 268.0968 15.08822811234564
STARLINK-3743           
1 52118U 22029AG  26159.88310584  .00000346  00000+0  39824-4 0  9994
2 52118  53.1654  29.6926 0001225 102.7709 257.3420 15.08839249234554
STARLINK-3558           
1 52119U 22029AH  26159.86469828  .00000530  00000+0  51428-4 0  9998
2 52119  53.1694  29.7849 0002655 126.2756 233.8481 15.08841099234557
