OBJECT_NAME,OBJECT_ID,EPOCH,MEAN_MOTION,ECCENTRICITY,INCLINATION,RA_OF_ASC_NODE,ARG_OF_PERICENTER,MEAN_ANOMALY,EPHEMERIS_TYPE,CLASSIFICATION_TYPE,NORAD_CAT_ID,ELEMENT_SET_NO,REV_AT_EPOCH,BSTAR,MEAN_MOTION_DOT,MEAN_MOTION_DDOT
STARLINK-3589,2022-025AT,2026-06-08T18:03:32.988096,15.08842110,.0001309,53.1684,330.2756,77.2653,282.8485,0,U,51997,999,23465,.77037E-5,-.165E-5,0
STARLINK-3618,2022-025AU,2026-06-09T04:12:56.393280,15.08849351,.0001085,53.1646,328.3750,80.3619,279.7495,0,U,51998,999,23473,.33491E-3,.5048E-4,0
STARLINK-3653,2022-025AW,2026-06-08T18:19:25.909248,15.08831709,.0000935,53.1653,330.1388,79.6622,280.4475,0,U,52000,999,23467,-.71803E-4,-.143E-4,0
STARLINK-3659,2022-025AX,2026-06-09T04:09:02.264832,15.08835270,.0000944,53.1664,328.3955,78.0352,282.0745,0,U,52001,999,23473,.66662E-5,-.182E-5,0
STARLINK-3668,2022-025AY,2026-06-09T04:07:40.660032,15.08807371,.0001328,53.1678,328.4315,101.6127,258.5013,0,U,52002,999,23473,.36866E-3,.5579E-4,0
STARLINK-3712,2022-029C,2026-06-08T21:26:14.500032,15.08833382,.0001334,53.1656,39.6451,91.6994,268.4150,0,U,52090,999,23442,.93751E-4,.1204E-4,0
STARLINK-3716,2022-029E,2026-06-08T21:31:32.611008,15.08830570,.0001323,53.1668,39.6274,87.5860,272.5283,0,U,52092,999,23442,.83701E-4,.1044E-4,0
STARLINK-3673,2022-029F,2026-06-08T21:17:01.189248,15.08834635,.0001187,53.1656,39.6847,88.1126,272.0001,0,U,52093,999,23442,.44052E-4,.413E-5,0
STARLINK-3714,2022-029G,2026-06-08T21:20:56.676768,15.08829501,.0001588,53.1648,39.6609,111.7194,248.3967,0,U,52094,999,23442,.28191E-4,.16E-5,0
STARLINK-3701,2022-029H,2026-06-08T21:05:02.509728,15.08832539,.0001169,53.1643,39.7148,72.5873,287.5246,0,U,52095,999,23442,.27062E-4,.143E-5,0
STARLINK-3717,2022-029J,2026-06-08T20:34:34.347936,15.08831090,.0001195,53.1639,29.8065,80.8477,279.2650,0,U,52096,999,23454,.4859E-4,.485E-5,0
STARLINK-3665,2022-029L,2026-06-08T21:10:20.422848,15.08835688,.0001098,53.1666,39.6946,85.5185,274.5932,0,U,52098,999,23442,.15457E-3,.2173E-4,0
STARLINK-3702,2022-029N,2026-06-08T20:59:44.479104,15.08838174,.0001418,53.1665,39.7274,90.9854,269.1300,0,U,52100,999,23442,.94211E-4,.1212E-4,0
STARLINK-3703,2022-029P,2026-06-08T21:15:40.752576,15.08837074,.000153,53.1654,39.8711,81.2319,278.8846,0,U,52101,999,23441,-.18886E-4,-.589E-5,0
STARLINK-3709,2022-029Q,2026-06-08T21:02:26.943072,15.08834547,.0001329,53.1654,29.7200,95.0815,265.0328,0,U,52102,999,23455,.88023E-4,.1113E-4,0
STARLINK-3705,2022-029R,2026-06-08T20:23:58.659072,15.08830643,.0001128,53.1653,29.8402,89.1965,270.9156,0,U,52103,999,23454,.34188E-4,.256E-5,0
STARLINK-3706,2022-029T,2026-06-08T21:50:09.295584,15.08879611,.0001318,53.1648,29.5735,76.1272,283.9866,0,U,52105,999,23455,-.49355E-3,-.8143E-4,0
STARLINK-3670,2022-029U,2026-06-08T20:43:51.030048,15.08832694,.0001387,53.1670,39.7759,91.8601,268.2549,0,U,52106,999,23441,.60555E-4,.676E-5,0
STARLINK-3658,2022-029V,2026-06-08T21:43:27.878592,15.08833447,.0001388,53.1666,29.5921,89.8647,270.2503,0,U,52107,999,23455,.38914E-4,.331E-5,0
STARLINK-3698,2022-029W,2026-06-08T21:54:02.108160,15.08850435,.0001358,53.1659,29.5585,83.2742,276.8404,0,U,52108,999,23455,.14879E-3,.2081E-4,0
STARLINK-3687,2022-029Y,2026-06-08T21:48:45.692352,15.08837472,.0001303,53.1666,29.5743,91.4376,268.6765,0,U,52110,999,23455,.7579E-4,.918E-5,0
STARLINK-3708,2022-029Z,2026-06-08T21:27:34.173792,15.08838928,.0001306,53.1668,29.6402,87.8322,272.2819,0,U,52111,999,23455,.12584E-3,.1715E-4,0
STARLINK-3734,2022-029AA,2026-06-09T04:00:03.000096,15.47503143,.0001087,53.2173,18.1610,75.0131,186.4116,0,U,52112,999,590,.26104E-2,.1383E-2,0
STARLINK-3736,2022-029AB,2026-06-08T21:16:58.188576,15.08851557,.0001256,53.1665,29.6755,106.1879,253.9251,0,U,52113,999,23455,-.18544E-3,-.3239E-4,0
STARLINK-3737,2022-029AC,2026-06-08T23:08:14.238816,15.08844940,.0001384,53.1658,29.3259,84.8388,275.2761,0,U,52114,999,23456,.14793E-3,.2067E-4,0
STARLINK-3685,2022-029AD,2026-06-08T21:06:22.428000,15.08806646,.0000857,53.1651,29.7067,99.6761,260.4327,0,U,52115,999,23455,.11054E-3,.147E-4,0
STARLINK-3735,2022-029AE,2026-06-08T21:22:16.317696,15.08853631,.000149,53.1664,29.6557,77.6362,282.4796,0,U,52116,999,23455,-.16133E-3,-.2856E-4,0
STARLINK-3738,2022-029AF,2026-06-08T20:55:46.555968,15.08822811,.0001281,53.1638,29.7411,92.0170,268.0968,0,U,52117,999,23456,.24854E-4,.107E-5,0
STARLINK-3743,2022-029AG,2026-06-08T21:11:40.344576,15.08839249,.0001225,53.1654,29.6926,102.7709,257.3420,0,U,52118,999,23455,.39824E-4,.346E-5,0
STARLINK-3558,2022-029AH,2026-06-08T20:45:09.931392,15.08841099,.0002655,53.1694,29.7849,126.2756,233.8481,0,U,52119,999,23455,.51428E-4,.53E-5,0
